CUTE-1 (CO-55)          
1 27844U 03031E   19240.92159700  .00000038  00000-0  36690-4 0  9990
2 27844  98.6848 248.0711 0009785 178.1353 181.9863 14.22191414838374
CUBESAT XI-IV (CO-57)   
1 27848U 03031J   19241.00440645  .00000029  00000-0  32871-4 0  9992
2 27848  98.6925 248.6679 0009442 189.6087 170.4911 14.21785044838277
CUBESAT XI-V            
1 28895U 05043F   19240.87839156  .00000072  00000-0  22625-4 0  9997
2 28895  97.9690  21.2086 0018002 124.7275 235.5626 14.63685021737666
CUTE-1.7+APD II (CO-65) 
1 32785U 08021C   19241.15242915  .00000123  00000-0  18852-4 0  9996
2 32785  97.5527 237.5062 0013909  32.0508 328.1552 14.88334998614315
AAUSAT-II               
1 32788U 08021F   19241.07720327  .00000025  00000-0  72965-5 0  9995
2 32788  97.4965 253.6485 0010836 327.8090  32.2469 14.94778079615587
DELFI-C3 (DO-64)        
1 32789U 08021G   19240.73072648  .00000684  00000-0  49593-4 0  9995
2 32789  97.4592 288.2347 0010793 237.5257 122.4928 15.07068505617562
SEEDS II (CO-66)        
1 32791U 08021J   19240.98331971  .00000117  00000-0  17186-4 0  9996
2 32791  97.5297 243.3878 0013509   7.6889 352.4535 14.90855872614731
SWISSCUBE               
1 35932U 09051B   19240.91540278  .00000079  00000-0  28971-4 0  9996
2 35932  98.5949  49.0005 0006677 313.5411  46.5231 14.56303274527101
BEESAT-1                
1 35933U 09051C   19241.05148439  .00000069  00000-0  26620-4 0  9994
2 35933  98.5972  50.9301 0005117 330.5295  29.5612 14.56390146527271
ITUPSAT1                
1 35935U 09051E   19241.15035373  .00000053  00000-0  23441-4 0  9990
2 35935  98.6081  51.2647 0007348 324.2871  35.7833 14.55547540527039
TISAT 1                 
1 36799U 10035E   19241.41707195  .00000070  00000-0  13209-4 0  9990
2 36799  98.1648  35.9866 0011689 204.8280 155.2376 14.91140486495452
M-CUBED & EXP-1 PRIME   
1 37855U 11061F   19241.04381946  .00000340  00000-0  25324-4 0  9996
2 37855 101.7100 173.2644 0173000 225.2459 133.4566 15.05545280427519
STRAND-1                
1 39090U 13009E   19240.83298505  .00000027  00000-0  24738-4 0  9997
2 39090  98.4828  85.5780 0010388  78.7682 281.4671 14.35094546340572
SOMP                    
1 39134U 13015E   19240.93395924  .00000654  00000-0  39084-4 0  9993
2 39134  64.8633 149.6075 0034811 291.6105  68.1315 15.20271705351042
BEESAT-3                
1 39135U 13015F   19240.91688079  .00000536  00000-0  36283-4 0  9995
2 39135  64.8693 168.9688 0030898 304.8195  55.0025 15.17560838350664
BEESAT-2                
1 39136U 13015G   19241.17871413  .00000577  00000-0  38970-4 0  9991
2 39136  64.8683 172.1509 0022991 304.6270  55.2687 15.16976598351019
NEE-01 PEGASO           
1 39151U 13018B   19241.20612085  .00000072  00000-0  16558-4 0  9991
2 39151  97.9734 337.1181 0016317 334.6561  25.3849 14.80064415342306
ESTCUBE 1               
1 39161U 13021C   19241.22301254  .00000113  00000-0  25663-4 0  9994
2 39161  97.9850 324.8383 0010828  96.8970 263.3469 14.72221530338890
POPACS 1                
1 39268U 13055D   19241.02311656  .00004311  00000-0  11857-3 0  9997
2 39268  80.9989 245.9073 0625079  12.6946 348.9180 14.37386806307289
POPACS 2                
1 39269U 13055E   19240.84083766  .00001688  00000-0  46743-4 0  9992
2 39269  81.0128 277.4007 0684485  94.2309 273.7340 14.24135682304177
POPACS 3                
1 39270U 13055F   19240.83592040  .00001369  00000-0  41177-4 0  9995
2 39270  81.0160 295.1114 0714565 145.4449 219.5406 14.15969158283561
ZACUBE-1 (TSHEPISOSAT)  
1 39417U 13066B   19240.91084838  .00000120  00000-0  21454-4 0  9990
2 39417  97.5626 250.4105 0059511 159.0710 201.2960 14.81138904311589
WNISAT-1                
1 39423U 13066H   19241.38792387  .00000048  00000-0  18827-4 0  9993
2 39423  97.7785 178.1578 0176506  89.5740 272.5673 14.53054415305867
TRITON-1                
1 39427U 13066M   19240.89519481  .00000151  00000-0  32315-4 0  9997
2 39427  97.6831 213.8983 0112501 297.9456  61.0397 14.67869522308598
GOMX-1                  
1 39430U 13066Q   19241.41453829  .00000142  00000-0  34564-4 0  9991
2 39430  97.7517 193.2641 0151979  28.5427 332.3990 14.59274687307061
CUBEBUG-2 (LO-74)       
1 39440U 13066AA  19241.41377184  .00000115  00000-0  23041-4 0  9999
2 39440  97.6057 235.6290 0079358 211.0565 148.5942 14.75877217310551
NEE-02 KRYSAOR          
1 39441U 13066AB  19240.48556085  .00000071  00000-0  17291-4 0  9996
2 39441  97.6101 232.4798 0080657 221.5157 137.9910 14.74922756310237
FUNCUBE-1 (AO-73)       
1 39444U 13066AE  19240.93953652  .00000171  00000-0  27310-4 0  9994
2 39444  97.5603 252.4518 0058784 152.5734 207.8603 14.81962547309894
UWE-3                   
1 39446U 13066AG  19240.88906546  .00000131  00000-0  24067-4 0  9992
2 39446  97.5833 242.2333 0069811 186.4572 173.5748 14.78411790309784
BRITE-CA1 (TORONTO)     
1 40020U 14033L   19241.38430037 -.00000001  00000-0  83598-5 0  9992
2 40020  97.7429  81.2296 0086060 288.2359  70.9494 14.66583443277802
DUCHIFAT-1              
1 40021U 14033M   19240.76499750  .00000143  00000-0  20423-4 0  9994
2 40021  97.9225 165.5931 0012931 169.3259 190.8235 14.90665249282134
NANOSATC-BR1            
1 40024U 14033Q   19240.76218548  .00000106  00000-0  16944-4 0  9993
2 40024  97.9115 162.8304 0012163 172.6200 187.5198 14.89874721282023
QB50P1                  
1 40025U 14033R   19240.73314853  .00000173  00000-0  24444-4 0  9995
2 40025  97.9032 160.2979 0012253 179.2511 180.8726 14.88970147281895
QB50P2                  
1 40032U 14033Y   19240.75697078  .00000105  00000-0  17355-4 0  9996
2 40032  97.8951 158.3626 0011781 175.0278 185.1057 14.88503618281810
PERSEUS-M2              
1 40037U 14033AD  19241.18153447  .00000009  00000-0  72143-5 0  9996
2 40037  97.8871 154.7299 0014053 188.3833 171.7149 14.86470890281592
PERSEUS-M1              
1 40039U 14033AF  19241.18353797  .00000009  00000-0  73207-5 0  9990
2 40039  97.8852 153.7786 0013956 185.7462 174.3596 14.86091092281524
POLYITAN-1              
1 40042U 14033AJ  19241.34835193  .00000133  00000-0  20282-4 0  9999
2 40042  97.9112 161.2609 0014709 168.1559 192.0006 14.88685215281896
TIGRISAT                
1 40043U 14033AK  19240.88926376  .00000072  00000-0  18179-4 0  9996
2 40043  97.7478 105.6582 0058810 226.1717 133.4623 14.74284758278795
AEROCUBE 6A             
1 40045U 14033AM  19240.64049246  .00000148  00000-0  28697-4 0  9994
2 40045  97.7708 109.5090 0056593 219.5174 140.1903 14.75413468278787
AEROCUBE 6B             
1 40046U 14033AN  19240.85007914  .00000168  00000-0  31565-4 0  9994
2 40046  97.7639 109.2781 0055967 217.9596 141.7664 14.75394966278815
UKUBE-1                 
1 40074U 14037F   19241.30074089  .00000128  00000-0  22534-4 0  9999
2 40074  98.4444  47.3534 0004987   4.3843 355.7426 14.84083551278273
BRITE-PL2 (HEWELIUSZ)   
1 40119U 14049B   19240.83583522  .00000066  00000-0  14293-4 0  9990
2 40119  97.9046 330.8503 0017148 353.3657   6.7327 14.84419260272136
FIREBIRD 4              
1 40378U 15003C   19241.41365405  .00000705  00000-0  31997-4 0  9991
2 40378  99.1183 236.4431 0126220 211.0016 148.3722 15.18972521252818
GRIFEX                  
1 40379U 15003D   19241.16597199  .00000498  00000-0  25884-4 0  9998
2 40379  99.1182 229.7684 0134002 231.5997 127.3135 15.15614511252415
EXOCUBE (CP10)          
1 40380U 15003E   19240.91193647  .00000392  00000-0  22381-4 0  9994
2 40380  99.1209 225.9847 0138815 244.1120 114.5741 15.13627067252138
TIANWANG 1C (TW-1C)     
1 40926U 15051B   19241.14670199  .00008456  00000-0  11911-3 0  9996
2 40926  97.1311 287.2590 0009822 106.6158 317.2165 15.56826994221270
TIANWANG 1A (TW-1A)     
1 40928U 15051D   19241.04988605  .00001962  00000-0  49373-4 0  9990
2 40928  97.1423 270.7700 0011565 165.0555 250.6053 15.41064846220160
EXACTVIEW 9             
1 40936U 15052G   19241.28687519  .00000741  00000-0  14624-4 0  9991
2 40936   6.0022 270.6360 0010054  74.8081 285.3158 14.76501984211827
ATHENOXAT 1             
1 41168U 15077C   19239.75460236  .00001407  00000-0  38697-4 0  9996
2 41168  14.9887  62.5773 0011565 347.2974  12.7055 15.13718527204616
GALASSIA                
1 41170U 15077E   19240.72065424  .00001392  00000-0  37339-4 0  9993
2 41170  14.9893  48.3839 0012841  25.4664 334.6289 15.14047713204821
VELOX-II                
1 41171U 15077F   19240.71775671  .00001139  00000-0  27126-4 0  9997
2 41171  14.9915  83.3242 0008907 299.4090  60.5341 15.11269888204514
HORYU-4                 
1 41340U 16012D   19241.44504652  .00000350  00000-0  19858-4 0  9992
2 41340  31.0058  37.4807 0013723 121.1861 239.0121 15.01295074193809
E-ST@R-II               
1 41459U 16025D   19241.18739614  .00001815  00000-0  95510-4 0  9992
2 41459  98.1028 331.2895 0168888 118.1579 243.6840 15.05588569183309
AAUSAT 4                
1 41460U 16025E   19241.20583265  .00002200  00000-0  11264-3 0  9998
2 41460  98.0952 332.7303 0158436 109.9966 251.8507 15.07518752183447
DIWATA-1                
1 41463U 98067HT  19241.41914344  .00022085  00000-0  98573-4 0  9998
2 41463  51.6278 233.6777 0002499  64.9598  88.4890 15.84184324191131
BEESAT-4                
1 41619U 16040W   19240.85896493  .00000868  00000-0  39550-4 0  9998
2 41619  97.3620 301.7397 0012711 128.4661 231.7718 15.23243841164698
CANX-7                  
1 41788U 16059F   19241.25564661  .00004098  00000-0  61852-3 0  9997
2 41788  98.2432 317.8304 0030833 144.3622 215.9672 14.74573972156556
RAVAN                   
1 41849U 16067B   19240.78595094 -.00000305  00000-0 -20427-4 0  9998
2 41849  97.9241 340.9797 0009250 134.9573 225.2400 14.98282018152643
CELTEE 1                
1 41850U 16067C   19241.25869252 -.00000412  00000-0 -30520-4 0  9997
2 41850  97.9192 339.9823 0009483 138.8775 221.3162 14.97034521152637
